{
  "type": "FeatureCollection",
  "features": [
    {
      "type": "Feature",
      "properties": {
        "norad_id": 66526,
        "name": "STARLINK-35932",
        "group": "last-30-days",
        "lat": -9.20300794874248,
        "lon": 80.80707323940919,
        "alt_km": 371.55947368781744,
        "timestamp": "2025-12-06T11:28:09.786270+00:00",
        "meta_object_name": "STARLINK-35932",
        "meta_object_id": "2025-265L",
        "meta_epoch": "2025-12-05T22:00:03.000096",
        "meta_mean_motion": 15.67990734,
        "meta_eccentricity": 0.00016356,
        "meta_inclination": 43.0002,
        "meta_ra_of_asc_node": 94.1837,
        "meta_arg_of_pericenter": 288.3359,
        "meta_mean_anomaly": 128.9503,
        "meta_ephemeris_type": 0,
        "meta_classification_type": "U",
        "meta_norad_cat_id": 66526,
        "meta_element_set_no": 999,
        "meta_rev_at_epoch": 378,
        "meta_bstar": -0.019351018,
        "meta_mean_motion_dot": -0.01950022,
        "meta_mean_motion_ddot": 0,
        "tle_line1": "1 66526U 25265L   25339.91670139 -.01950022  00000+0 -19351-1 0  9993",
        "tle_line2": "2 66526  43.0002  94.1837 0001635 288.3359 128.9503 15.67990734  3788"
      },
      "geometry": {
        "type": "Point",
        "coordinates": [
          80.80707323940919,
          -9.20300794874248
        ]
      }
    },
    {
      "type": "Feature",
      "properties": {
        "norad_id": 66527,
        "name": "STARLINK-35935",
        "group": "last-30-days",
        "lat": -7.913678007231863,
        "lon": 82.23632636918744,
        "alt_km": 371.48830711390474,
        "timestamp": "2025-12-06T11:28:09.786279+00:00",
        "meta_object_name": "STARLINK-35935",
        "meta_object_id": "2025-265M",
        "meta_epoch": "2025-12-05T22:00:03.000096",
        "meta_mean_motion": 15.67994109,
        "meta_eccentricity": 0.00015574,
        "meta_inclination": 43.0001,
        "meta_ra_of_asc_node": 94.1791,
        "meta_arg_of_pericenter": 288.1171,
        "meta_mean_anomaly": 131.0823,
        "meta_ephemeris_type": 0,
        "meta_classification_type": "U",
        "meta_norad_cat_id": 66527,
        "meta_element_set_no": 999,
        "meta_rev_at_epoch": 389,
        "meta_bstar": -0.019372982,
        "meta_mean_motion_dot": -0.01952156,
        "meta_mean_motion_ddot": 0,
        "tle_line1": "1 66527U 25265M   25339.91670139 -.01952156  00000+0 -19373-1 0  9998",
        "tle_line2": "2 66527  43.0001  94.1791 0001557 288.1171 131.0823 15.67994109  3892"
      },
      "geometry": {
        "type": "Point",
        "coordinates": [
          82.23632636918744,
          -7.913678007231863
        ]
      }
    },
    {
      "type": "Feature",
      "properties": {
        "norad_id": 66528,
        "name": "STARLINK-35928",
        "group": "last-30-days",
        "lat": -6.618619576540192,
        "lon": 83.65738374344431,
        "alt_km": 371.3217878214282,
        "timestamp": "2025-12-06T11:28:09.786291+00:00",
        "meta_object_name": "STARLINK-35928",
        "meta_object_id": "2025-265N",
        "meta_epoch": "2025-12-05T22:00:03.000096",
        "meta_mean_motion": 15.67991899,
        "meta_eccentricity": 0.00016535,
        "meta_inclination": 43.0003,
        "meta_ra_of_asc_node": 94.1742,
        "meta_arg_of_pericenter": 288.8376,
        "meta_mean_anomaly": 132.2806,
        "meta_ephemeris_type": 0,
        "meta_classification_type": "U",
        "meta_norad_cat_id": 66528,
        "meta_element_set_no": 999,
        "meta_rev_at_epoch": 389,
        "meta_bstar": -0.019352561,
        "meta_mean_motion_dot": -0.01950256,
        "meta_mean_motion_ddot": 0,
        "tle_line1": "1 66528U 25265N   25339.91670139 -.01950256  00000+0 -19353-1 0  9996",
        "tle_line2": "2 66528  43.0003  94.1742 0001653 288.8376 132.2806 15.67991899  3899"
      },
      "geometry": {
        "type": "Point",
        "coordinates": [
          83.65738374344431,
          -6.618619576540192
        ]
      }
    },
    {
      "type": "Feature",
      "properties": {
        "norad_id": 66529,
        "name": "STARLINK-35933",
        "group": "last-30-days",
        "lat": -5.319785757234253,
        "lon": 85.07039967339608,
        "alt_km": 371.2975537813809,
        "timestamp": "2025-12-06T11:28:09.786302+00:00",
        "meta_object_name": "STARLINK-35933",
        "meta_object_id": "2025-265P",
        "meta_epoch": "2025-12-05T22:00:03.000096",
        "meta_mean_motion": 15.67993156,
        "meta_eccentricity": 0.0001541,
        "meta_inclination": 43.0003,
        "meta_ra_of_asc_node": 94.1691,
        "meta_arg_of_pericenter": 286.8595,
        "meta_mean_anomaly": 136.1745,
        "meta_ephemeris_type": 0,
        "meta_classification_type": "U",
        "meta_norad_cat_id": 66529,
        "meta_element_set_no": 999,
        "meta_rev_at_epoch": 389,
        "meta_bstar": -0.019357042,
        "meta_mean_motion_dot": -0.01950657,
        "meta_mean_motion_ddot": 0,
        "tle_line1": "1 66529U 25265P   25339.91670139 -.01950657  00000+0 -19357-1 0  9996",
        "tle_line2": "2 66529  43.0003  94.1691 0001541 286.8595 136.1745 15.67993156  3893"
      },
      "geometry": {
        "type": "Point",
        "coordinates": [
          85.07039967339608,
          -5.319785757234253
        ]
      }
    },
    {
      "type": "Feature",
      "properties": {
        "norad_id": 66530,
        "name": "STARLINK-35961",
        "group": "last-30-days",
        "lat": -4.016593376048774,
        "lon": 86.47918105205527,
        "alt_km": 371.154684190451,
        "timestamp": "2025-12-06T11:28:09.786312+00:00",
        "meta_object_name": "STARLINK-35961",
        "meta_object_id": "2025-265Q",
        "meta_epoch": "2025-12-05T22:00:03.000096",
        "meta_mean_motion": 15.67963524,
        "meta_eccentricity": 0.00014074,
        "meta_inclination": 43.0002,
        "meta_ra_of_asc_node": 94.1645,
        "meta_arg_of_pericenter": 288.5859,
        "meta_mean_anomaly": 136.3873,
        "meta_ephemeris_type": 0,
        "meta_classification_type": "U",
        "meta_norad_cat_id": 66530,
        "meta_element_set_no": 999,
        "meta_rev_at_epoch": 389,
        "meta_bstar": -0.019039148,
        "meta_mean_motion_dot": -0.01920129,
        "meta_mean_motion_ddot": 0,
        "tle_line1": "1 66530U 25265Q   25339.91670139 -.01920129  00000+0 -19039-1 0  9996",
        "tle_line2": "2 66530  43.0002  94.1645 0001407 288.5859 136.3873 15.67963524  3896"
      },
      "geometry": {
        "type": "Point",
        "coordinates": [
          86.47918105205527,
          -4.016593376048774
        ]
      }
    },
    {
      "type": "Feature",
      "properties": {
        "norad_id": 66531,
        "name": "STARLINK-35960",
        "group": "last-30-days",
        "lat": -2.7141383370876166,
        "lon": 87.8793878045369,
        "alt_km": 370.99940841399075,
        "timestamp": "2025-12-06T11:28:09.786324+00:00",
        "meta_object_name": "STARLINK-35960",
        "meta_object_id": "2025-265R",
        "meta_epoch": "2025-12-05T22:00:03.000096",
        "meta_mean_motion": 15.6799919,
        "meta_eccentricity": 0.00016058,
        "meta_inclination": 43.0002,
        "meta_ra_of_asc_node": 94.1593,
        "meta_arg_of_pericenter": 288.8611,
        "meta_mean_anomaly": 138.0041,
        "meta_ephemeris_type": 0,
        "meta_classification_type": "U",
        "meta_norad_cat_id": 66531,
        "meta_element_set_no": 999,
        "meta_rev_at_epoch": 389,
        "meta_bstar": -0.019442094,
        "meta_mean_motion_dot": -0.01958703,
        "meta_mean_motion_ddot": 0,
        "tle_line1": "1 66531U 25265R   25339.91670139 -.01958703  00000+0 -19442-1 0  9994",
        "tle_line2": "2 66531  43.0002  94.1593 0001605 288.8611 138.0041 15.67999190  3892"
      },
      "geometry": {
        "type": "Point",
        "coordinates": [
          87.8793878045369,
          -2.7141383370876166
        ]
      }
    },
    {
      "type": "Feature",
      "properties": {
        "norad_id": 66532,
        "name": "STARLINK-35914",
        "group": "last-30-days",
        "lat": -1.4069030661502142,
        "lon": 89.28048740713871,
        "alt_km": 370.84307848301796,
        "timestamp": "2025-12-06T11:28:09.786334+00:00",
        "meta_object_name": "STARLINK-35914",
        "meta_object_id": "2025-265S",
        "meta_epoch": "2025-12-05T22:00:03.000096",
        "meta_mean_motion": 15.67990389,
        "meta_eccentricity": 0.00016116,
        "meta_inclination": 43.0001,
        "meta_ra_of_asc_node": 94.1546,
        "meta_arg_of_pericenter": 289.441,
        "meta_mean_anomaly": 139.3456,
        "meta_ephemeris_type": 0,
        "meta_classification_type": "U",
        "meta_norad_cat_id": 66532,
        "meta_element_set_no": 999,
        "meta_rev_at_epoch": 389,
        "meta_bstar": -0.019325089,
        "meta_mean_motion_dot": -0.01947671,
        "meta_mean_motion_ddot": 0,
        "tle_line1": "1 66532U 25265S   25339.91670139 -.01947671  00000+0 -19325-1 0  9997",
        "tle_line2": "2 66532  43.0001  94.1546 0001611 289.4410 139.3456 15.67990389  3896"
      },
      "geometry": {
        "type": "Point",
        "coordinates": [
          89.28048740713871,
          -1.4069030661502142
        ]
      }
    }
  ]
}